PESEL,full_name,phone_number,street_name,street_number,code,city,country
5483678729,Petrina Cromblehome,3438125087,West,44767,,Yichun,China
2091568007,Sile Cabotto,8398622915,Memorial,89,2519,Carletonville,South Africa
2199005739,Tami Thirst,3985501528,Arkansas,2,141196,Fryazino,Russia
2172353922,Pietro Trustram,1394722550,Menomonie,02904,,Wentang,China
1147798028,Linette Bruntjen,3651870713,Mesta,255,739 91,Jablunkov,Czech Republic
4990041577,Rosalind Livezey,1819043517,Sommers,32,663594,Uritsk,Russia
2640475428,Alick But,8959194912,Lighthouse Bay,357,23-413,Obsza,Poland
8434226707,Stefa Khosa,3378907703,Beilfuss,9,,Youchou,China
3731354039,Vyky Ravel,9322720204,Farwell,31317,423031,Popovo,Russia
2846215537,Celestina Shemming,9026791819,Del Sol,70,,Balkh,Afghanistan
8597789646,Klara Smeal,1068474639,Erie,16795,433248,Novogireyevo,Russia
0357600444,Lev Bodham,8126328168,Superior,3475,,Donggaocun,China
7783649696,Avril Whale,1203880918,Russell,8176,42-141,Przystajń,Poland
6798970427,Beniamino Thomsen,9628413846,Lawn,650,,Dandai,China
1686959400,Silvia Lawless,7496276638,Butternut,520,70762,Santa Cruz,Mexico
0420065938,Galvan Corran,8025305184,Packers,0823,,Badāmā,Syria
5732014012,Quincy Cafferty,4595131308,Lillian,27,,Hendījān,Iran
8305826325,Shadow Eingerfield,2137289927,Mosinee,98390,,Dandai,China
3687313573,Glory Fillan,8919537220,Magdeline,116,4619,Bergen op Zoom,Netherlands
9325462664,Che Nesbitt,7667910846,Iowa,82136,,Tāklisah,Tunisia
4030513336,Mommy Scollick,6232478540,Randy,8,3364,El Soberbio,Argentina
2528222556,Rozalin Peddowe,9173104158,Kennedy,3222,302 30,Halmstad,Sweden
1795283904,Dallis Canizares,7044522064,Talisman,263,43900-000,São Francisco do Conde,Brazil
1954445490,Trumaine Dimbleby,7353931310,Portage,59,56528,Adolfo Lopez Mateos,Mexico
8340464698,Oliviero Aiskovitch,9774010247,Forster,32,,Pakel,Indonesia
6548584082,Tamar Brake,2336485203,Glendale,1615,,Shanggan,China
9932933244,Marcos Heimann,5423522700,Bellgrove,2,,Dete,Zimbabwe
3158053349,Anstice Ince,4724594064,Twin Pines,8846,68020 CEDEX,Colmar,France
8267519157,Darlleen Bufton,3636885698,Westport,639,,Sebewe,Indonesia
2725336856,Benedick Jurek,9599769040,Drewry,73,35400-000,Ouro Preto,Brazil
0119084252,Ronica Simko,6698205981,Canary,9,,Ares Tengah,Indonesia
6919788896,Katlin Pagden,7354266494,Fuller,52302,,Sinarbakti,Indonesia
7119442155,Raynor Godbold,2804318193,Myrtle,276,,Wangtuan,China
5106151163,Ursula Lacroix,4208957540,Fuller,948,,Sumberrojokrajan,Indonesia
5799240138,Elena Luna,5762541690,Prairie Rose,738,,Shimen,China
4676338732,Mahmoud Belhomme,9873442038,Lukken,20739,11-210,Sępopol,Poland
3251054740,Ivy Stitch,9882998925,Troy,4774,,Jubb Ramlah,Syria
5449499043,Roberta Barense,2076426191,Express,183,,Qijiaxi,China
8580593514,Bing Vawton,8828055825,Brickson Park,0755,,Zhouhu,China
1642403822,Annelise Stillmann,8228501385,Dwight,4,,Dayingjie,China
5103520702,Evelin Linnett,3692615669,Hollow Ridge,78,810,Tvøroyri,Faroe Islands
1488907293,Arlyne Fish,5271205444,Brentwood,703,4550,Embarcación,Argentina
1539149277,Thom Musk,5004085398,East,4,,Rote,Indonesia
4458732714,Andrea Toe,1888594006,Bay,842,2705-085,Azenhas do Mar,Portugal
4115585722,Griff Dukesbury,9916783140,Lindbergh,3412,152240,Gavrilov-Yam,Russia
7049183156,Minna Sellack,8561463333,Huxley,219,1209,Hilversum,Netherlands
3285124431,Colline Ladds,2868111293,Mitchell,674,83450,Libertad,Mexico
1950879526,Sonni Heaviside,2686851939,Arrowood,7494,55160,Ongkharak,Thailand
9914572022,Amalita Quest,4027839034,Basil,59606,,Hengdong Chengguanzhen,China
3164585527,Noam Jentgens,8514675448,Onsgard,2820,,Taoyuan,China
1631060651,Eustace Jenkinson,8639366891,Oriole,2,,Sanxi,China
5013348110,Jone Lusted,3672117676,Orin,4550,35600-000,Bom Despacho,Brazil
7698824608,Nickolas Cavet,1603959649,Northfield,19,,Agago,Uganda
1892505584,Shurlocke Ferenczy,2362214773,Schurz,8,,Gaogongdao,China
6469728995,Benji Byrde,1896618050,Kedzie,63,70004 CEDEX,Vesoul,France
2706633182,Melody Hesse,9062180636,Northfield,89076,68480-000,Portel,Brazil
1949684253,Ferdie Brewood,5609488281,Stuart,753,J8Y,Angus,Canada
7017347676,Guenevere Chastelain,2381756582,Beilfuss,9,71120,Tha Maka,Thailand
5152752042,Base Helleckas,8441766379,Caliangt,36,,Sukasari,Indonesia
7039829908,Stanly Elsmere,2012309111,Haas,57719,,Patalan,Indonesia
6192809364,Leon Dumbar,6206780689,Butternut,964,,Suisan,South Korea
1510757309,Curr Parslow,3488284329,Lotheville,12,601525,Mezinovskiy,Russia
4653131503,Melva Rosenstock,9814330863,Forest,6482,,Linxihe,China
2187854876,Enoch Torbeck,8958673909,Northport,87937,416020,Tambovka,Russia
2715224176,Ky MacKenzie,5218716108,Charing Cross,84636,349-1148,Kukichūō,Japan
9016279261,Willard Starsmore,9095972713,Elmside,80457,7412,Siasi,Philippines
9939368151,Billy Pail,5053523780,Bluestem,80,2434,Arroyito,Argentina
2615045636,Garold Daltry,6889032332,Barnett,0,41015,Sevilla,Spain
0817651314,Erwin Hartnup,2782921021,Redwing,85667,,Selaparang Timur,Indonesia
9134317503,Adelle Cudmore,3196269318,Grim,6301,,Shambu,Ethiopia
1795064595,Regina Glenn,9312180420,Division,0965,,Longshan,China
9602364882,Dasi Bushnell,8115301013,Fisk,2589,,Khalīlābād,Iran
0673283380,Moreen Langstaff,2416883228,Stoughton,8,4207,Laoag,Philippines
9866328848,Monah Noad,1325850850,Spohn,702,67214 CEDEX,Obernai,France
2609666772,Micky Woakes,2424026591,Buell,40655,,Cibolek Kidul,Indonesia
7832672692,Merry Catt,8774328189,Schiller,32,,Amper,Nigeria
9359447269,Teddi Wogdon,9073763237,Mayfield,4,22009,El Adelanto,Guatemala
5287413483,Dillie Brauner,3121846892,Hallows,1872,,Siguiri,Guinea
9119648685,Rhodia Ouslem,3979560182,Dunning,34,5196,Arroyo Seco,Argentina
1989070825,Guthrie Risom,7853647975,Mandrake,54,,Pavlodar,Kazakhstan
8045298871,Cassondra Maisey,3137817573,Northfield,72120,,Danyang,China
9170912319,Allyn Malinowski,9922122173,Buhler,98543,06239 CEDEX,Villefranche-sur-Mer,France
7986963069,Markus Asling,9323212740,Prairie Rose,635,1656,Salinas,Philippines
1706570473,Alvan Wensley,5346297008,East,20510,86042 CEDEX 9,Poitiers,France
9324539302,Aksel Zimmermanns,2091493981,Dakota,7,,Waiwukak,Indonesia
0826792715,Nestor Dibbin,1819912059,Stephen,2,,Svislach,Belarus
4207166882,Traver Hebner,7631137566,Anthes,75,923 24,Storuman,Sweden
8372498792,Donnajean Collick,8743316807,Prairieview,17620,1047,Арачиново,Macedonia
4151198695,Saba Schusterl,9081731139,Fisk,78,,Wuxihe,China
7687224450,Sibylle Franz-Schoninger,1173642691,Sugar,7889,,Kremidivka,Ukraine
6454967689,Rock Gomersall,2617017930,Ramsey,70,,Minh Lương,Vietnam
2214322612,Flory Sinderland,2574335869,4th,975,44150,Äänekoski,Finland
7476487613,Glyn Tomashov,7444129621,Commercial,35,7039,La Dicha,Philippines
5589540682,Darrel Barlow,6943972886,Lukken,315,,Benger,Indonesia
1516003381,Gayelord Thorrold,3484410682,Tomscot,83,,Nanyulinxi,China
5499414432,Brendan Chree,2207402407,Maryland,3647,12006,Concepción Tutuapa,Guatemala
5650678596,Stinky Conibere,6591443784,Merrick,0484,369110,Psyzh,Russia
4899869568,Delano Dibling,3765728023,Brown,4,,Samdrup Jongkhar,Bhutan
1371138613,Juliann Micheli,8108608898,Holmberg,09,,Penja,Cameroon
8276801153,Paloma McMonies,2101562685,Petterle,316,L-9780,Wincrange,Luxembourg
1306821002,Fonsie Writer,4723889717,Sachtjen,02673,,Shima,China
4332415086,Maryann Dik,2869057373,Holmberg,88261,999-3776,Tendō,Japan
9707014067,Fayina Gartell,2539958615,Crest Line,2578,2408,Bangan-Oda,Philippines
3710720753,Wolf Perrett,3542572998,Lillian,95465,289 34,Rožďalovice,Czech Republic
0039711897,Nora Dalrymple,1054987596,Westerfield,6213,,Hongqi,China
9540997720,Kent Iscowitz,2636827682,Crownhardt,46,40141,Bologna,Italy
3068464757,Antonina Wigan,5969939260,Quincy,97,,Libofshë,Albania
2022920287,Alric Somerfield,2093153929,Pankratz,372,,Mosetse,Botswana
5654532502,Dru Cestard,2028352267,Schurz,9,91384 CEDEX,Chilly-Mazarin,France
0659235315,Tiffany Grantham,6469995938,Walton,773,,Niba,China
9014640471,Albina Mapston,7087650500,Old Gate,4,,Dongba,China
9190096789,Dallon Keyho,7964293217,Heath,794,9928,Bloemfontein,South Africa
8285794431,Kirk Jagg,4756754245,Hazelcrest,34,,Keffin Hausa,Nigeria
1533067740,Marlane Ochterlonie,4338032403,Eastwood,52,2209,Subic,Philippines
8886242166,Nobie Atthowe,5435491250,Arapahoe,9,,Cirompang,Indonesia
7350865112,Rene Daintrey,7196631355,Banding,584,1337,Osilnica,Slovenia
9585218941,Alta Riseborough,1615132491,Buena Vista,9,620920,Severka,Russia
0927052571,Patrick Yurmanovev,2925420345,Fairview,0,,Yangpu,China
1204158231,Avrom Wesgate,1979560828,Schmedeman,9979,2162,Botevgrad,Bulgaria
1053908172,Gilbertine Hanscom,2742928649,Spenser,1,,Jin’e,China
7112738067,Stuart Towle,5203214855,Reinke,59,,Ţūbās,Palestinian Territory
8034320382,Micky Edlington,4137025698,Colorado,013,47240,Slunj,Croatia
0899234933,Benjamin Lanaway,2634376990,Moose,60,,Longsha,China
2525411137,Lulu Lias,5794392919,Dottie,68178,17860-000,Pacaembu,Brazil
2960773373,Michel Ellaman,7399442015,Oak Valley,4271,09450-000,Rio Grande da Serra,Brazil
2767579927,Jeremiah Epperson,9736153211,Golf,14,6090-215,Aranhas,Portugal
7743986667,Dorri Minihane,4887826929,Bonner,11948,,Hexia,China
4225536963,Heidi Turone,6957891356,Schlimgen,5757,,Okpoma,Nigeria
9426983538,Marleah Treadger,5465019518,Vidon,91513,,Jiangkou,China
1994734833,Sharai Shafto,2272587770,Packers,1609,250437,Ubaté,Colombia
3164726171,Gelya Stroulger,2276357699,Morrow,39216,,Umm Şalāl ‘Alī,Qatar
3068428319,Michaeline Bentham3,9091647312,Glendale,4,20110,Si Racha,Thailand
7455632274,Blake Aaronson,2904510607,Prairie Rose,41753,,Hüremt,Mongolia
5183714878,Harmonia Kneaphsey,5587711022,Florence,23962,,Fengtai Chengguanzhen,China
2799416055,Delilah Matheson,3708143807,Lindbergh,3,,Marvdasht,Iran
4712611790,Ilse Buffin,2908330721,Wayridge,79,,Chocope,Peru
3628762472,Ivy Starton,3684448604,Melby,2505,1675-007,Pontinha,Portugal
3953506978,Nickolaus Giamelli,6107860734,American Ash,8568,,Tacarigua,Venezuela
6411323704,Kesley Erskine,1445967755,Lotheville,73,5206,Pola,Philippines
2906173290,Giles Dmitrovic,5782672046,4th,5619,,Saryshaghan,Kazakhstan
0936680474,Walther Patten,1648769780,Morningstar,3,3515,Capitán Solari,Argentina
6837142798,Damiano Rolfe,4759777075,Ilene,7,614534,Yug,Russia
4893500708,Roselle Widdop,1605701578,Roth,139,14160-000,Sertãozinho,Brazil
7904379104,Cindra Skace,6313663975,Hallows,81,,Sanchahe,China
8031210195,Tessi Gidney,2042050149,Fair Oaks,3,,Kítsi,Greece
0672289970,Read Rumens,6185614316,Melrose,64,,Karangasem,Indonesia
9648622248,Danny Foltin,6837242704,Brentwood,0,,Peristerona,Cyprus
5988559077,Mavis Brobak,5137045772,Johnson,51529,981-4121,Ichinoseki,Japan
9401653801,Philbert Cartmill,6951645179,Bartillon,77522,34186 CEDEX 4,Montpellier,France
5295513491,Janice Braisted,1581106770,Morning,48111,37500-000,Itajubá,Brazil
8846664825,Robbin Pear,4728671959,Marcy,034,,Koufália,Greece
7715028282,Krispin Ketton,9357503307,Becker,55,1701,Tambo,Philippines
0932520022,Filippo Sherred,8203995909,Tony,4329,612 37,Finspång,Sweden
0568548027,Serge Maher,4435936739,Birchwood,19082,02-983,Chyżne,Poland
9869581838,Caralie Joice,5917132055,Sherman,540,,Yayao,China
4589872803,Donia Chapier,4447542674,Colorado,7109,,Caspisapa,Peru
6118378177,Durand O'Cannovane,4488267985,Leroy,65832,,Dimitsána,Greece
4402521408,Bucky Gerrans,9019556106,Pierstorff,8,,Longtang,China
8508354347,Mallory Matevosian,2011963733,Cambridge,64637,243418,Pochep,Russia
7785181381,Roseline Fost,1418554464,Maple Wood,53,25215 CEDEX,Montbéliard,France
1897788703,Gwendolyn Dorran,1834002603,Sutteridge,7,,Xinxian,China
2022766687,Cort Syversen,2665112846,Marcy,075,981-4327,Uenohara,Japan
8787731967,Traci Rayer,8263723141,Golf,2497,48321,Peteranec,Croatia
4379275833,Maegan Ucchino,2548251399,Union,88,,Liutan,China
9914804918,Tymon Tompsett,2516461497,Northview,49,7823,Ath,Belgium
3913305246,Monro Timmins,4065772536,Lawn,83,BD23,Thorpe,United Kingdom
8664838321,Lammond Menezes,9356360349,Hudson,8,2525-675,Reinaldes,Portugal
9554826095,Taite Hyams,4176237723,Gateway,96593,,Sidamukti,Indonesia
1777141710,Garwood Gronou,9113455496,Shelley,5,7600-411,Montes Velhos,Portugal
5844302516,Willamina Marlin,4143548809,Nobel,46250,1225,Теарце,Macedonia
6864942031,Elie Ogles,5048096975,Cottonwood,584,73110,Sam Phran,Thailand
9787507022,Erinna Barrat,3503521487,Fuller,45945,,Changxuanling,China
7005196317,Min Prince,2543250325,Union,0,05-090,Śródmieście,Poland
5311828234,Bald Wike,5057205644,Pond,5,,Shitan,China
7898140419,Augustine Dochon,8459933197,Bashford,98,,Heqing,China
0333667654,Constancia Portman,2118886116,Pierstorff,13,NE46,Newbiggin,United Kingdom
7932844231,Jyoti Guerrieri,8079821070,Tomscot,068,,Huiyuan,China
3743078082,Georgi O'Garmen,6824449539,Oneill,21620,83060 CEDEX,Toulon,France
8263807085,Maggee Constantinou,3293088046,Arrowood,26,,Zerkten,Morocco
2720052221,Sampson Lowndsborough,9083296805,Ryan,4,,Loandjili,Republic of the Congo
1785011847,Aimee Beaument,3195845549,Prairie Rose,806,,Holma,Nigeria
4593739020,Jonathon Darragh,8838654114,Ramsey,0459,M2N,Napierville,Canada
4820847961,Vladimir Butler,1963334956,Jana,446,635 01,Eskilstuna,Sweden
0143781855,Ellsworth Towe,4726139795,Ludington,83414,,Guadalupe,Panama
1759801747,Huberto Payn,5439545905,Riverside,29106,,Aramecina,Honduras
4332187342,Benedict Jolland,6083854864,Redwing,39507,645 94,Strängnäs,Sweden
4491698031,Bat Delong,7948192875,Fuller,2078,2508,Nanyo,Philippines
1312706252,Delia Peachment,1939164850,Clove,8,38-480,Rymanów,Poland
3010579152,Hynda Nijs,3648622565,Arkansas,49,,Futian,China
5240204195,Simonne Etoile,6788187118,Sundown,51199,,Dahu,China
1957532831,Reeta Douglass,9485458010,Bunker Hill,3327,1117,Gulod,Philippines
0152205322,Dukie Rouchy,4392922924,Northridge,0893,735 81,Starý Bohumín,Czech Republic
0381852326,Ursuline Bletso,2341711614,Cascade,781,,Kelīshād va Sūdarjān,Iran
6514696414,Allayne Powton,9529160101,La Follette,9,5507,Looc,Philippines
1123453292,Marnia Merrigans,3515838878,Center,21,516 01,Rychnov nad Kněžnou,Czech Republic
4450718550,Virge Wyllie,6899202408,Eastlawn,7574,,Layu,China
2541886810,Avivah Tinman,4146105872,Grover,719,53263,Milwaukee,United States
5500285459,Berty Rannie,2571423379,Morrow,73,62576,Putrajaya,Malaysia
3989147587,Wally Weekley,8406744310,Loeprich,953,,Kharagauli,Georgia
2677601435,Kenton Cristou,3276268593,Fordem,68624,84-122,Żelistrzewo,Poland
2442998424,Sherri Gent,6748550224,Knutson,6298,,Tangxian,China
5251070624,Corliss Rontree,2221952425,Larry,9,,Waiwejak,Indonesia
2095488024,Stacia Bugdall,3671984248,Lakewood Gardens,07,62-280,Kiszkowo,Poland
0540659290,Caldwell Ratlee,8923383988,Canary,099,729-3222,Fuchūchō,Japan
6103306590,Spencer Kubczak,1142745604,Lakeland,65329,457134,Bobrovka,Russia
2816337030,Jerry Dixsee,2398863741,New Castle,3237,6112,Cauayan,Philippines
1415425191,Osbourn Beeden,2109269444,Di Loreto,0746,3001,Paombong,Philippines
9375194248,Benjy Stanley,3024536884,Green,94,,Kasoa,Ghana
7727474762,Trueman Danes,7708347855,Roth,55,,Chitungwiza,Zimbabwe
7837181204,Annie Rubinsztein,5358857920,Gerald,974,,Dagu,China
7320639556,Carley Franceschielli,1475658616,Packers,994,,Tögrög,Mongolia
6767134783,Reggi Boardman,2154837089,Utah,9,6811,Manamrag,Philippines
2737458072,Joya Sawers,4087760790,Kenwood,184,,Ferreñafe,Peru
1992556237,Lazarus Dukes,7854433360,Maple,46,L-7634,Larochette,Luxembourg
2652374672,Pippa Chisholm,7196740631,Lake View,03,,Linqu,China
0397195141,Ninetta Rozanski,7992314624,Steensland,510,,Turija,Serbia
2727709021,Griffie Trunchion,6445588538,Pine View,04,2200-463,Casais de Revelhos,Portugal
3815003776,Danita Endon,1408754856,Hintze,232,,Abū Zabad,Sudan
6550274508,Etienne Maycey,4434477957,Doe Crossing,37,25024 CEDEX,Besançon,France
3633191054,Elga Hartley,3392025314,Twin Pines,6,60315 CEDEX 5,Creil,France
6867909272,Mickie O'Dougherty,5833339070,Alpine,39216,,Xinjiang,China
8911053880,Ewart Soro,6074689121,Corben,18514,,Ngulangan,Indonesia
9244719142,Boy O'Loughlin,2173317106,Briar Crest,91785,,Pinsk,Belarus
3862907821,Nollie Brunsdon,6757291459,John Wall,3,4015,Stavanger,Norway
9405209388,Rodrick Karus,4468175826,Roth,87804,628532,Lugovskoy,Russia
8869737020,Alfy Hearon,8129952430,Vernon,87,1701,Tambo,Philippines
9130077834,Cassius Haborn,6424826939,Sherman,668,,Jiapeng,China
9187605864,Berkie Jenne,7084468517,Lawn,8,17350-000,Igaraçu do Tietê,Brazil
9017215712,Alisun Gannaway,7338012948,Mariners Cove,6621,,Ukrainka,Ukraine
0469894628,Lyon Jesper,2963825883,Susan,3,P72,Oughterard,Ireland
7677773370,Kahlil Maryet,8253279757,Straubel,955,6041,Biasong,Philippines
3035773262,Clarisse Semkins,1988721196,Crowley,86854,742 65,Rybí,Czech Republic
3189449821,Riannon Rojel,6332267450,Dapin,7096,,Huacrapuquio,Peru
8170474647,Gregorius McCritchie,7414481774,Armistice,6497,,Jeonju,South Korea
1835806449,Conchita De Gregoli,3085291410,Dennis,6,N5L,Chilliwack,Canada
0227977505,Constantino McGruar,2391485276,Lakewood,1,,Zhabagly,Kazakhstan
4103431164,Steffen Francombe,5964215634,Buhler,199,,Huzhen,China
3631033699,Myrna Bolstridge,4938879141,Schlimgen,83948,61900-000,Maracanaú,Brazil
3473757284,Ainslie Jochens,2271271703,Cottonwood,25,,Norashen,Armenia
9177191986,Wynne Ronnay,7884409272,Sullivan,7,80-893,Prażmów,Poland
4096916463,Raul Hesey,7323863337,Barnett,62358,78700-000,Rondonópolis,Brazil
9883914024,Ivett Elven,7815924271,Elgar,00133,422826,Kuybyshevskiy Zaton,Russia
9254714305,Maynord Folcarelli,2072138025,Rieder,9595,,Ḩalāwah,Jordan
0831616652,Eddi Puttock,1059070940,Kinsman,6854,56110,Khu Khan,Thailand
9313342499,Nicholas Bonin,6417600733,Kingsford,83157,50906,Bejuco,Costa Rica
4130740601,Loria Backshaw,8343675972,Westend,49533,456440,Podol’sk,Russia
8506190215,Addy Tatteshall,5807480918,Meadow Ridge,715,,Ajdabiya,Libya
3279789850,Darcie Glowacz,6322054271,Eastlawn,9,,Jiachuan,China
6403888870,Jephthah Delucia,1213690042,Hauk,00243,7016,Robonkon,Philippines
5433635287,Garvey Gavriel,2853350015,Hoepker,16936,,Ágio Pnévma,Greece
5366041546,Antonie Baxstare,9342230032,7th,9,,Liucheng,China
1951760174,Dukey Hoyland,7068625685,Kensington,7,444 32,Stenungsund,Sweden
9658919758,Jule Greenhaugh,6005185468,Vera,7727,5120-040,Arcos,Portugal
1035309254,Darleen Stainton,7836155209,Grasskamp,34,634027,Quimbaya,Colombia
2400705577,Mohandis Robshaw,9559847435,Grayhawk,8,164 35,Kista,Sweden
9759607557,Dredi Kembrey,5688073933,Stuart,7,88300-000,Itajaí,Brazil
2448086605,Augustus MacKey,7349271609,Merchant,51,5605,Bongued,Philippines
2632862221,Trstram Katte,9438042715,Sutteridge,147,,Koungheul,Senegal
5379476538,Worth Heddon,6917729380,Emmet,1845,,Kedawung,Indonesia
2564498965,Galven Chang,3825488014,Mosinee,90408,734528,Prado,Colombia
3992260194,Granthem Maris,3757178263,Tennyson,8,9585,Parys,South Africa
0915841347,Olvan Lanphier,9697967643,Derek,903,,Agrínio,Greece
9583279412,Aggie Edgcombe,4047762068,Clyde Gallagher,7,,Ainaži,Latvia
0301879494,Gherardo Volante,9702341369,Ilene,50,2200-463,Casais de Revelhos,Portugal
2803937298,Dex Tunna,3128633362,Loomis,11,60624,Chicago,United States
4578562301,Jemimah Astie,9695764636,Steensland,73264,,Tanjung Pandan,Indonesia
3896652397,Pamelina Vost,5209215418,Katie,29,,Cẩm Phả,Vietnam
0439306973,Bebe Brandon,3393758446,Coleman,7,6401,Bobon,Philippines
3437539302,Jewell Cammack,4284929585,Little Fleur,1624,,Gayamdesa,Indonesia
8584632190,Desmond Jeary,6399662256,Jenna,06,,Huacachi,Peru
1662416393,Livia Mattam,1982119199,Kropf,68,70000,Ratnapura,Sri Lanka
4205665067,Sher Garretson,8678471989,Logan,2,2840-707,Flor da Mata,Portugal
8159719892,Cleavland Virgin,1525560936,Sullivan,0443,3740-251,Sever do Vouga,Portugal
4818039047,Pail Crookshank,5186271735,Starling,69912,,Senada,Morocco
9598550702,Gawen Spurman,3863766846,Emmet,9009,,Kombandaru,Indonesia
9748061671,Jeffrey Rawson,8399061599,Rieder,0391,,Yangxunqiao,China
8816628790,Marcelo Barrable,3539446565,Shopko,07354,,Putrajawa,Indonesia
3551653607,Karie Wilcott,4265367272,Namekagon,2100,20403 CEDEX,Bastia,France
2388427959,Matty Brewers,8141604855,Holmberg,43822,,Bundibugyo,Uganda
5034350130,Meade Girardey,7029440502,Milwaukee,96306,,Adzopé,Ivory Coast
8450157730,Christine Butt,6363203027,Fulton,1187,,Taramana,Indonesia
9593815252,Leeann Twizell,8001653384,Arizona,05,,Sabaneta,Venezuela
5117225953,Laney Colquyte,4607985744,Loftsgordon,3099,50124,Firenze,Italy
0406616264,Caleb Layzell,7364058290,Valley Edge,48618,D17,Raheny,Ireland
3160514668,Susanne Arnout,4839205249,Luster,5762,34-481,Zubrzyca Dolna,Poland
2747120309,Towny Pashbee,2174358890,Walton,7,592 14,Kyjov,Czech Republic
5918753885,Jenn Joy,7188885995,North,18920,72130,Sam Chuk,Thailand
3375169035,Torie Richarson,5778250840,Melody,98,,Hongcao,China
6325254783,Fulvia Ply,7623773377,Sycamore,772,,Zhenqiao,China
1918547297,Gwynne Melledy,8651395397,Nova,55307,7461,Bhātpāra Abhaynagar,Bangladesh
6831810632,Geri Jayne,7022252789,Mariners Cove,98293,,Xiadian,China
6240531855,Emmalynne Paten,7931502223,Clove,45,,Jiangzhang,China
0820375438,Jenn Haswall,8185202038,Carey,7324,,Pleiku,Vietnam
9568156380,Sutton Geraldez,2532032702,Fulton,5499,25204 CEDEX,Montbéliard,France
5798387569,Jerrome Grigolli,8387467456,Boyd,910,45585-000,Itagibá,Brazil
6286922229,Haskell Sommerscales,9895662478,Farwell,8797,,Batutua,Indonesia
4633003461,Mufi Antat,8488425650,Bluejay,0,,Uluale,Indonesia
2701950848,Brigit Soppit,3308060654,Blue Bill Park,4732,44511,Youngstown,United States
8367782801,Harcourt Rockwill,8018962134,Mayfield,951,,Jampang Tengah,Indonesia
7400466046,Nickie Glading,9467410302,Algoma,50,136 63,Haninge,Sweden
1429958383,Trace Sidlow,4569245356,Meadow Vale,61,,Xiqi,China
4671095130,Karel Tattoo,8334082927,Eastlawn,58,,Uuemõisa,Estonia
9903218796,Gonzales Reggler,7623495283,Waywood,22954,11403,Hostos,Dominican Republic
3773576765,Graeme Jamson,5654127126,Continental,73,,Tallkalakh,Syria
7675995023,Carlina Elcock,9464913518,Bonner,652,981-3311,Tomiya,Japan
0374295441,Jeanette Lowy,2039125284,Dunning,963,,Jinglou,China
3371949052,Englebert Danilowicz,5364543148,Hoffman,5175,,Prantaan,Indonesia
7801139275,Jennee Mollene,3313791899,Drewry,2655,,Timbulsari,Indonesia
2955856495,Ines Shurman,6597988555,Manitowish,15,79480,Kangaslampi,Finland
9432705137,Troy Greatham,3587072546,Spenser,5052,62010 CEDEX,Arras,France
3473909661,Darelle Parcell,1161351168,Schurz,98,456684,Brodokalmak,Russia
5959178311,Ellwood Jarad,7471711425,Holmberg,85,,Windusakti Hilir,Indonesia
2866245725,Hartley Mills,8161240855,Farragut,1826,,Saño,Peru
4586311797,Carissa Kornousek,5289579690,Westport,5691,,Chenhu,China
1402968582,Gusta Pitfield,5031445639,Menomonie,55173,,Weepanapi,Indonesia
4914315114,Eveleen Sugg,9586241209,Arkansas,457,,Jiangtou,China
0842223142,Jacklin Fomichkin,3467022380,Arapahoe,24,,Strellc i Ulët,Kosovo
6820087829,Minette Rehor,7304624367,Novick,67,3405-425,Seixo da Beira,Portugal
8749843575,Shae Pomroy,1199694986,Linden,210,,Bangshipu,China
1101673737,Bruce Ramel,5512833465,Sunfield,058,,Linjiang,China
4870655969,Aili Craisford,1822107873,Bultman,51849,4025,Stavanger,Norway
9641488406,Lizzie Napier,5116803396,Sherman,1,60435,Frankfurt am Main,Germany
3912096112,Hillary Tottle,9794101229,Russell,5,3351,Azara,Argentina
6715352399,Jaime Varian,8642159355,Arizona,41,,La Molina,Peru
7492804040,Brinna Winslade,4101875751,Cherokee,91451,903 22,Umeå,Sweden
0338381554,Norma Penhallurick,5407194124,Schurz,6,24009,Roanoke,United States
3813241157,Amos Treadgold,2641236398,Bartillon,376,,Chaowai,China
0939061201,Fayina Aylott,8486992570,Vera,90798,,Jimo,China
6664664607,Corrinne Gauson,5781629086,Gina,168,,Talu,Indonesia
0272403601,Tiphanie Ipwell,1424425782,Norway Maple,897,65765-000,Dom Pedro,Brazil
5090475679,Wenonah Lowdham,8552392045,Carey,60410,70502,Batán,Costa Rica
3767274795,Kylila Cumine,5963361924,Everett,652,238346,Волочаевское,Russia
2224033575,Floris Dearnly,1388571098,Mariners Cove,10,,Wuguishan,China
3052127756,Prisca Tombleson,9213559832,Loftsgordon,69,,Yeghegnut,Armenia
6482802176,Brit Hocking,2109037103,Welch,2720,4520,Bogra,Bangladesh
2270652479,Guillaume Angrave,5628054156,High Crossing,3391,,Vanimo,Papua New Guinea
3172062740,Sydelle Newns,4807823768,Delladonna,835,,Tajerouine,Tunisia
5401381662,Dniren Beeken,9608929959,Haas,2539,,Mỹ Tho,Vietnam
8887599114,Jillane Crowson,2404282795,Division,5618,,Kedungsinggil,Indonesia
3196684059,Mirella Mico,4781331368,Shoshone,7387,121 48,Johanneshov,Sweden
9834011997,Cal Backshall,5674631765,Kedzie,4421,,Huangzhan,China
4771580324,Prue Wethered,2532882711,Northview,0644,,Boyu,China
1305193989,Imogene Boole,7036307100,Beilfuss,23650,7203,Limbuhan,Philippines
0784790507,Shanda Dury,2362443354,Paget,240,2011,Jamālpur,Bangladesh
7667268088,Flore Skamal,5448187663,Holy Cross,9,,Luodong,China
7021451431,Othelia Wyre,2942674586,Pearson,0745,62576,Loma Bonita,Mexico
7682699868,Glen Fidock,8758721200,International,166,,Buurhakaba,Somalia
0364002751,Toddie Miquelet,7787644449,Mccormick,6,677904,Magan,Russia
0029936675,Adoree Whitman,8089124475,Autumn Leaf,3107,368560,Novokayakent,Russia
0633816671,Emogene Dick,4365077970,Bunting,15,E32,Ferbane,Ireland
5299385803,Hedvige Haygreen,5878769385,Dawn,0320,P7L,Lumby,Canada
5116510174,Kariotta Michallat,4085906447,Chinook,2134,8038,Bodø,Norway
6583598639,Lezlie Attac,2458051405,Nova,12968,,Naekan,Indonesia
0846189593,Martie Kesby,7713587847,Roxbury,3258,,Makamba,Burundi
9680476804,Ervin Dawltrey,4238830510,Weeping Birch,64259,8701,Pontian,Philippines
4595775520,Tobye Pickthall,9872048931,Waubesa,1,,Buaran,Indonesia
6436741429,Darcey Havvock,5239199651,Rutledge,4,739 94,Třinec,Czech Republic
3716818429,Domini McGowan,8602400206,Grasskamp,43,,Mardzad,Mongolia
6510675862,Sigismundo Wintle,9433332590,Superior,4,,Kendaruan,Indonesia
5391851114,Pen Follet,7103399600,Forster,2,,Kushar,Yemen
2380620164,El Mulliner,6479891691,Thackeray,8027,79130-000,Rio Brilhante,Brazil
3642000584,Rainer Sharrem,7087268584,Dunning,1,48500-000,Euclides da Cunha,Brazil
1638530300,Lorain Pickring,5852933337,Village,97363,,Yingchengzi,China
3588624392,Ced Schwaiger,2525311643,Claremont,96,2254,Trnovska Vas,Slovenia
4056077525,Daniela Calcraft,7166132405,Steensland,73178,963-8878,Kōriyama,Japan
4799024574,Madge Huske,1374623154,Chive,79,,At-Bashi,Kyrgyzstan
4987083205,Benjie Wilflinger,2682938693,Vahlen,66503,39029 CEDEX,Lons-le-Saunier,France
8635011384,Donny Menci,3613117242,Garrison,7175,,Yara,Cuba
4034847778,Selma Brocklebank,3377135540,Bluestem,14,306-0614,Mitsukaidō,Japan
6211403771,Karyl Richten,9041920722,South,42,,Shiqiaotou,China
8268645369,Zorana Hacaud,5675995470,Mallard,0029,5965,Las Junturas,Argentina
4609967871,Helen-elizabeth Soutter,5414650986,Pennsylvania,878,,Molinos,Peru
1802363432,Derrik Blakesley,3521824851,3rd,195,9216,Bacungan,Philippines
8006718814,Sarah Broome,8756904888,Morningstar,49535,,Komysh-Zorya,Ukraine
8993337306,Ermin Enderlein,5117476517,Bobwhite,02,,Qaxbaş,Azerbaijan
2181894817,Wallie Foat,4091158719,Carpenter,3,,Youkounkoun,Guinea
7591536133,Chuck Reuven,9291440397,Meadow Valley,801,4323,Candelaria,Philippines
9730003475,Hasty Moorton,4318063114,Raven,745,,Gunjur Kuta,Gambia
1520068727,Stace Polle,6992221999,Sunnyside,11,6101,Bago City,Philippines
4873217393,Nat Hazeldene,9758499909,Eastlawn,0,,Savelugu,Ghana
3413562975,Lezley Tanfield,4407692610,Calypso,5,,Svitlovods’k,Ukraine
3121875817,Ermin Frankiss,5644640393,Farragut,330,,Acul du Nord,Haiti
7442170447,Frannie Burth,3927918319,Comanche,0843,,Dār an Naşr,Yemen
4923684488,Waylan Bridgstock,7469197490,Anniversary,767,6005,Luzern,Switzerland
7584191878,Alissa Whitehead,8106507671,Ilene,6320,,Sempu,Indonesia
8663083270,Mirabelle Ganforth,9388383771,Anthes,7253,397551,Losevo,Russia
0538715405,Pris Antonias,4151045167,Ramsey,7671,,Enshi,China
6486691913,Vida Fludder,7247484409,Cottonwood,2567,,Gelatik,Indonesia
3430657466,Falkner McVitie,4285920205,Donald,767,,Nancun,China
3816528686,Quill Baldocci,6136631363,Westport,918,58322-000,Conde,Brazil
0565977881,Mikol Olivari,9524887040,Golf View,7959,057858,Carepa,Colombia
8243785728,Mariel Ilewicz,2428035941,Judy,25262,,Suwon-si,South Korea
1990032419,Idalina Hornig,9708074181,Butternut,9838,48730-000,Conceição do Coité,Brazil
8990974356,Monah Blondin,5944536047,Shopko,726,04-358,Laliki,Poland
7596205127,Cori Vernazza,3048832275,Steensland,36342,143912,Zelenograd,Russia
4944723407,Angelina Jeaffreson,3427598239,Redwing,028,,Ningde,China
5138917277,Eugen Klimontovich,1052998531,Ludington,50,5244,Rosmalen,Netherlands
3938023562,Arni Howford,7938056875,Sloan,882,,Mberubu,Nigeria
7708807468,Sterling Martygin,6254002109,Express,8402,,Caibarién,Cuba
0481704450,Nanon Piscopello,5469357627,Becker,6,,Karobokan,Indonesia
4419320427,Jennie Mewburn,7337312024,Tony,55,,Nofoali‘i,Samoa
6991626724,Anallese Lainge,2908189550,Scoville,41082,2802,Lagangilang,Philippines
8973891618,Emmy Blase,2753619883,Ridge Oak,1970,,Thomazeau,Haiti
5751578570,Reynard Ball,2362996928,Colorado,67,20249,Hamburg Harvestehude,Germany
5435949300,Hyatt Dornan,8361484535,Morning,6733,687 65,Strání,Czech Republic
7923315825,Ximenez Sidebotham,3875743456,John Wall,01892,,Zhaojia,China
1582135479,Tanney Sokill,5253743017,Novick,124,49160,Mukdahan,Thailand
4502906506,Clerissa Ullett,6193512072,2nd,2,92170,San Diego,United States
0401473961,Aprilette Shimwall,6478861288,Lotheville,65,,Bomadi,Nigeria
8105016362,Nicolai Biglin,1617164153,Donald,0970,,Caiyuan,China
7972642362,Sofie Weymont,4074719268,Sloan,0,187453,Issad,Russia
6346344854,Reeba Blundon,3297362809,Jana,48,400036,Rybnoye,Russia
1503061132,Sal Goakes,6587374660,Transport,6568,356501,Likhoy,Russia
2128051347,Ambur Maxworthy,8887973640,Mcbride,2,588 22,Luka nad Jihlavou,Czech Republic
2325292754,Claire Ishak,9679682901,Lighthouse Bay,98836,,Detik Satu,Indonesia
6402330256,Odo Junkinson,6124333550,Esch,5,,Ḩajjah,Palestinian Territory
5837286802,Alvera Dory,5194218405,Arizona,74,,Dongdong,China
7240391337,Noelle Lyttle,7987710505,Redwing,4,,Nggalak,Indonesia
5141368645,Lanny Minchinton,3822932020,Veith,13,4660-215,Resende,Portugal
4707127894,Berry Loughran,8151870306,Forster,386,,Dabu,China
5440681183,Vivi Leaver,7724267978,Kropf,375,,Capira,Panama
6866277620,Timmy Toping,6451187638,American,8371,,Klayusiwalan,Indonesia
2086629516,Gabriela Nott,1077571802,Doe Crossing,06710,3384,Emnambithi-Ladysmith,South Africa
4555782267,Alexandra Tomala,6856942258,Novick,73913,,Pengbu,China
4840855587,Julienne Baron,8344764713,Mallard,2520,,Katsikás,Greece
2982588633,Tudor Rennebach,4212434762,Pawling,727,,Coloncito,Venezuela
4155027453,Rollo Lowensohn,8519149631,Beilfuss,87391,33100,Khānpur,Pakistan
9322041269,Paxton Mildenhall,6996539501,Kensington,59771,,Jiangcheng,China
5772723146,Normy Aloshikin,1109361889,Bonner,9463,865-0131,Motegi,Japan
6129486790,Jeramie Ryley,5964466957,Hauk,0,,Bogi,Indonesia
4540402307,Braden Copsey,9347634540,Oak,62320,10307,Patarrá,Costa Rica
7962130172,Ellene Mc Elory,1887356396,Golden Leaf,6,71605,Guadalupe,Mexico
1888252057,Kerwinn Garnsworth,3542527763,Warrior,35216,,Hongyi,China
4272910515,Shaylynn Simondson,3945371902,Rutledge,2736,96330-000,Arroio Grande,Brazil
5654283561,Isak Giblett,4989340873,Muir,0,,Al Maşlūb,Yemen
4411699354,Evvie Pittoli,9269985129,Ludington,50,,Delingha,China
0048100552,Katherina Hundal,2357317025,Warbler,7,,Fuxing,China
9480326787,Sonia Stanney,6447545966,Jay,028,624082,Sysert’,Russia
4117540106,Judy Gascoigne,6407643458,Roxbury,94,3844,Harderwijk,Netherlands
2927570507,Scott Boyack,2376001764,Anthes,225,,Abū Ghaush,Israel
1893654613,Aubrette Janczewski,5294019994,Mcbride,66902,90129,Palermo,Italy
5999679621,Camilla Shepard,6079479624,Namekagon,45,J1E,Fermont,Canada
3619321752,Katine Bus,7603816952,Lyons,45491,,Yangjiapo,China
8766159210,Gale Rodrigues,6315219449,Crescent Oaks,40,,Mhango,Tanzania
9246580311,Magdaia Ivins,6216244113,John Wall,67,,Panzhuang,China
2322444189,Zolly O'Codihie,9697521943,Farragut,6,,Yuecheng,China
4283848239,Sharron Maysor,7152746646,Menomonie,191,,Pingyao,China
8663729804,Shelden Hawlgarth,6083290295,Old Shore,99,,Antsiranana,Madagascar
9001868509,Jandy Beldan,7127462873,Jenifer,739,,Miliangju,China
5307871376,Caesar Oxenford,7712218614,Ohio,63112,,Yangzizhou,China
8269337048,Analise Nathan,4836951702,Holmberg,436,745-0654,Kudamatsu,Japan
5214357982,Oralee McEnteggart,3225686231,Helena,081,N3T,Brant,Canada
3648295675,Cobby Daniaud,3061142628,Linden,99,426-0061,Tanuma,Japan
6014747133,Maureen Richardon,2537933406,Harbort,7695,,Thạnh Hóa,Vietnam
4258735116,Charline Oldam,6237212955,Marquette,89,,Toshloq,Uzbekistan
7674681777,Row Glayzer,3806442433,Main,92737,,Liancheng,China
8688825963,Giralda Juarez,9729469855,East,893,692150,Terney,Russia
7533504259,Dmitri Rexworthy,4371116366,Debra,6519,24400,Guadalupe,Mexico
8773053570,Bailey Keinrat,1371033816,Holmberg,892,6322,Ohrid,Macedonia
5755974411,Franciskus Goodenough,2283051825,Corben,78,,Taouloukoult,Morocco
1985805294,Amie Pimblott,6876901304,Charing Cross,8,4014,Lumbang,Philippines
9729496609,Blanca Scrauniage,8798333392,Brown,46,,Sangojar,Indonesia
0152459758,Benton Leyshon,4123804574,Schurz,454,22511,Nowshera Cantonment,Pakistan
3711350259,Brok Vant,8038493779,Kedzie,69185,35763 CEDEX,Saint-Grégoire,France
3671740779,Anabal Borless,2199964221,Lyons,4523,26-640,Radom,Poland
4397133484,Jess Adney,1461492191,Waubesa,4,3325,Šoštanj,Slovenia
8690159533,Candace Padula,2794420128,Truax,075,,Carabamba,Peru
4148846428,Sonja Postans,7647109902,Ridge Oak,95,,Satowebrang,Indonesia
4392711595,Cristin Gillease,8804719067,Arkansas,081,453839,Sibay,Russia
8820002450,Pinchas Brosh,5999593677,Sunbrook,5,2950-438,Venda do Alcaide,Portugal
5833148839,Gennifer McIleen,1413427746,Browning,9,,Tangshan,China
6501211905,Kippy Hechlin,4955113970,Express,750,83-212,Bobowo,Poland
0844450537,Kin Thebe,8381935999,Buhler,5,,Abadou,Morocco
0879418753,Letisha Tuftin,6279063815,Karstens,62,,Yonghe,China
7574790213,Boigie Lumsdaine,7829447758,Anniversary,43628,,Kosava,Belarus
2729236074,Odelle Preskett,5685280316,Duke,44684,231008,Moñitos,Colombia
3474565869,Wilmar McGeagh,5683590869,Northport,432,,Qiakeri,China
6653004058,Clementia Colles,8777164303,Straubel,2726,5180-344,Poiares,Portugal
1206502282,Lana Stacey,3209278739,Division,8074,56372,Saint Cloud,United States
3652701429,Konstantine Stallon,5322539967,Pankratz,152,,Diang,Cameroon
9982395386,Wilmette Allday,1419660316,Mifflin,29122,,Qingzhou,China
5330789796,Chase Rilings,5953765738,Eliot,87012,,Liuxia,China
3266243846,Davey McFie,6311223065,Pine View,6482,,Qixian,China
0510052126,Mureil Benedidick,6557495375,2nd,768,,Zangkaxa,China
8379860454,Alisun Winspare,5375018996,Chive,56355,,Tonggoh,Indonesia
5114686488,Talbot McSharry,6287580251,Raven,61,,Garoua Boulaï,Cameroon
9869263054,Griffin Gawith,6517066199,Onsgard,39,49480-000,Simão Dias,Brazil
9547701762,Bebe Wherry,7528036040,Chinook,0,J3L,Chambly,Canada
7462097672,Cordey Misson,9378930814,Hansons,81,,Muramvya,Burundi
6994487547,Nerissa Dudson,8548703787,Aberg,9475,,Ngromo,Indonesia
3072003513,Mavra Lorroway,6043734275,Mariners Cove,2,,Donja Dubica,Bosnia and Herzegovina
0922802459,Hermy Gimert,2033493262,Morningstar,6423,116 45,Stockholm,Sweden
7601538656,Walker Chisholm,8112853238,Veith,69338,5401,Marintoc,Philippines
8184668678,Emily Loveland,9318719363,Dawn,51339,789-0250,Kuroishi,Japan
4142696785,Cathy Draper,4614607680,David,87,,Baiquan,China
7412157264,Myrlene Papa,5517029708,Lerdahl,44755,,Komsomolsk,Ukraine
7100092086,Helli Walak,3082606662,Pankratz,72,963-7856,Shiroishi,Japan
3754541021,Benson Scotts,5196566676,Bay,6940,421 10,Västra Frölunda,Sweden
6586509157,Burr Duling,8393743605,Fieldstone,78417,,Hengdian,China
8343789830,Archer Huddles,5338118207,Green,8031,1768,Halden,Norway
1395959226,Joice Peschmann,2199035667,Stuart,13,13720-000,São José do Rio Pardo,Brazil
8150453539,Eustacia Greenland,8909453331,Doe Crossing,62047,197730,Sestroretsk,Russia
3481028725,Krissie Millichap,7852143509,Orin,41,,Kimakamak,Indonesia
0535601441,Arie Mollon,9954366243,Nobel,885,,Kocēni,Latvia
5954704945,Sheila-kathryn Shortcliffe,7556532710,Arizona,68,08075,Barcelona,Spain
6282155568,Nefen Kubelka,7106411134,Heffernan,50,,Nanjiao,China
8868139464,Greer O'Dowling,4572551611,Gateway,854,659029,Cheremnoye,Russia
8471336618,Rhonda Duckett,8166619959,Fisk,9,142817,Kotlovka,Russia
1776053729,Pancho Snedden,3313502947,West,9771,,Fengxian,China
1471234029,Sebastien Andrin,3175114216,Truax,2785,,Belmopan,Belize
7925890754,Britney Evans,1804808018,Bay,302,,Novomoskovs’k,Ukraine
2730177140,Alden Burras,3845224012,Brentwood,622,13270-000,Valinhos,Brazil
8461250737,Mollie Pitherick,6305858714,Russell,5,F23,Aghada,Ireland
2226758437,Reeba Huckfield,3128689913,Superior,7606,60686,Chicago,United States
7602722213,Kaine Cella,9769847617,Westport,308,,Kacha,Ukraine
0588692182,Harriette Burney,5155227659,Kinsman,31045,,Maroantsetra,Madagascar
3706515954,Janie Bour,8696745791,Myrtle,86763,,Bente,Indonesia
4955476732,Rey D'Antuoni,3745525563,Daystar,49673,,Estique,Peru
4246286397,Marice Ringsell,8865541257,Reindahl,3624,45140,Nong Hi,Thailand
0643748369,Anita Deadman,1872160364,Lakewood Gardens,21,31709 CEDEX,Blagnac,France
0354675737,Randell Hrishchenko,7535215405,Mayer,9,,Benisheikh,Nigeria
4808415461,Faydra Crace,6537173538,Esker,92,14140,Chaiyo,Thailand
6650801143,Kyla Branno,2872999138,Shoshone,0325,,Torkanivka,Ukraine
7217304474,Biron Hatley,6891556273,7th,38,45886,Gelsenkirchen,Germany
7697880458,Mikkel Dellenbach,2266062824,Ramsey,7,S7W,Saskatoon,Canada
0387811575,Glen Currington,5087884315,Birchwood,5893,8720,Del Pilar,Philippines
4130888609,Dorian McFadden,4438720400,Karstens,907,,Huangsha,China
4924703281,Ashlee Lohering,1425393108,Fallview,42798,60070,Independencia,Mexico
6513303117,Abdel Ferrarese,1038021778,Bluejay,90793,31000,Ban Dan,Thailand
2567393803,Reggy Leech,9588086789,Blue Bill Park,93,,Chuanxi,China
7995910576,Talbot Lumox,2047307273,Beilfuss,4081,3009,Pulong Sampalok,Philippines
0772364257,Malissa Trewinnard,5579037871,Eagle Crest,78364,115 22,Stockholm,Sweden
3472020385,Neile Gottelier,7111525601,Petterle,1184,18010,Granada,Spain
6703593086,Cherida Lamke,9164567046,Manitowish,711,94297,Sacramento,United States
5173260505,Dal Loads,4804214849,Pepper Wood,150,,Qizhen,China
7207960204,Mireille Godart,9103563936,5th,59,1040,Čair,Macedonia
9321816690,Rowney Gyse,5426699817,Jana,2,68540-000,Conceição do Araguaia,Brazil
5044749087,Peta Norvell,7005563642,Graceland,76,,Blantyre,Malawi
1456192221,Sly Vanshin,7327802232,High Crossing,5569,2203,Cabangan,Philippines
7042963776,Jule Gibbieson,5138275423,Cordelia,93005,45228,Cincinnati,United States
4057145478,Hermine Toppas,1564224700,Paget,92,254 62,Helsingborg,Sweden
9554619219,Emelda Lye,6397866620,American Ash,5576,06124,Perugia,Italy
0545533112,Todd MacInerney,6524461633,Sutherland,758,147 23,Tumba,Sweden
5814515856,Gertrude Poll,8683507687,Kropf,9,,Sumberejo,Indonesia
3745506790,Gayle Flewitt,8308947680,Lake View,9334,,Krajan Ngrambingan,Indonesia
7336018742,Orsa Jellard,5423063499,Shasta,90,4825-296,Refojos de Riba de Ave,Portugal
9315218418,Lilia Rochelle,2478652044,Eastlawn,1,,Taoling,China
3234759448,Eveline Ros,2707922168,Pankratz,7740,,Oematnunu,Indonesia
7016938867,Calli Madders,8206180138,Schmedeman,5456,,Dongqu,China
8872143136,Appolonia Kift,2536006856,Garrison,2360,16801,Hämeenkoski,Finland
9598529053,Carling Sadd,6688547123,Glacier Hill,948,98000,La Condamine,Monaco
8305362523,Eadmund Mordecai,1931619268,Eastlawn,7,,Tertek,Indonesia
2727983182,Yoshiko Creboe,2336781033,Thompson,220,051417,San José de La Montaña,Colombia
9513544257,Brooke Gerrish,3205614687,Springs,5085,,Makariv,Ukraine
5066599894,Faunie Balchin,8921340242,Mifflin,3328,75835-000,Portelândia,Brazil
2447518099,Dyanne Custy,2823294316,Golden Leaf,47,00128,Roma,Italy
5560170054,Laure Breinl,1308388497,Grasskamp,28038,471 41,Dubá,Czech Republic
0094535493,Garrot Lydster,1715919856,Lotheville,21206,,Arazane,Morocco
8636001838,Kellby Lindeberg,2304593778,Reindahl,8553,644552,Irtyshskiy,Russia
8468810762,Tait Leathwood,1105612667,Esch,1952,,Osveya,Belarus
8028727905,Lanie Chitter,3357277072,Londonderry,292,,Liutao,China
4316528211,Madel Comley,5283791065,Buhler,8529,78424 CEDEX,Carrières-sur-Seine,France
8969756191,Karin Lenham,1666752237,Vidon,18,49700-000,Capela,Brazil
9637327835,Amil Mower,2722853626,Moose,03191,7020,Aurora,Philippines
9255387073,Rodd Borgnol,3304417426,Darwin,34,5417,San Jacinto,Philippines
7830533474,Elonore Rides,3588013266,Upham,40471,,Dongkan,China
7918433858,Ilise Kitchaside,3635314280,Nancy,5,1257,Ростуша,Macedonia
0836605802,Herman Griggs,4711259264,Loomis,326,,Huabu,China
1532821522,Georgi Trayton,4132555525,Fair Oaks,60903,,Prao,Vietnam
2564896049,Nanci Gaskins,4424987483,Nova,37421,,Wanfu,China
3957313171,Ev Spry,6813733789,Sherman,071,645 84,Strängnäs,Sweden
5105864018,Lorrie Kenningley,2843991807,Dawn,510,93209 CEDEX,Saint-Denis,France
1681399024,Geri Aspy,4791473455,Susan,142,,Buyant,Mongolia
4845822849,Karlotte Darbey,9191426720,Oak Valley,9,,Romba,Indonesia
0105947695,Aldous Greschke,4468255094,Transport,24421,,Merapit,Indonesia
8935811483,Kirby Hecks,7965260476,Briar Crest,8,649-1211,Ibaraki,Japan
5468568136,Nicoli Plum,7633991055,Nova,29424,,Kagadi,Uganda
2236270232,Odelia Whelpton,2503085570,South,7,,Dasongshu,China
4499160774,Lilia Masi,6561577828,Pennsylvania,4515,,Monte Patria,Chile
2727160194,Chane Dudman,3541644881,Daystar,6,,Mohoro,Comoros
8643541559,Dun Pannett,6565138170,Farwell,42626,2515,Bacnotan,Philippines
8631066273,Lauryn MacKill,5038111702,Darwin,80754,,Nandong,China
5653544302,Lu Barnham,9273270950,Continental,3619,111711,Candelaria,Colombia
5028238235,Christyna Maslin,5282762995,Parkside,9,,Sandy Bay,Honduras
9019593889,Nonah Mapstone,3956071467,Blackbird,06218,39930,Karvia,Finland
4405711755,Audie Evanson,6782591863,Del Sol,27654,,Chimtāl,Afghanistan
2944723596,Mill Halle,6724216788,Arapahoe,16770,39600-000,Araçuaí,Brazil
4860037340,Corinne Springthorpe,1104710121,Spaight,960,169309,Ukhta,Russia
1932588590,Lari Loins,7165295839,Kinsman,20,,Darungan Lor,Indonesia
6678799526,Goldarina Wassell,7747969291,Ilene,98,1114,Salvacion,Philippines
5291325224,Brianna Dybald,4641879404,Darwin,19,,Pignon,Haiti
9321192522,Carlin Freegard,4901418883,Magdeline,05831,,Pringu,Indonesia
7471428228,Carol Kindleysides,5982689023,Monument,0680,,Taokeng,China
4428475888,Hale Klempke,6204178673,Rutledge,84,24120,Phanom Sarakham,Thailand
5694807510,Nananne Leonards,4765145264,Quincy,1,408-0021,Abashiri,Japan
2702082432,Ada Codeman,8858873844,Arkansas,47,901095,Atlasovo,Russia
8386089237,Karlik Anstee,1773634224,High Crossing,14,3361,General Alvear,Argentina
6245111188,Finlay Koopman,6233277148,Golden Leaf,503,,Kokembang,Indonesia
1552461793,Melisenda Fontenot,3739186732,Walton,0,252 28,Černošice,Czech Republic
9857852688,Nikolaos Brasher,6725856837,Bunker Hill,6916,,Zhaocun,China
3958313590,Denni Clist,5166775567,Eliot,2,439 24,Onsala,Sweden
2672523258,Dukey Squibe,1483952828,Dorton,541,,Pampanito,Venezuela
8520121969,Micki Camoletto,9309016469,Sunfield,98,,Yako,Burkina Faso
9398606747,Natasha Jorioz,9484491555,Declaration,6254,3507,Alcala,Philippines
2664090852,Juliana Barford,1599324822,Corben,9472,154617,Saboyá,Colombia
9640950777,Hillel Landers,3883398001,Hintze,4135,,Kalumpang,Indonesia
6581293830,Noak Ladon,1564101243,Saint Paul,06002,3230,Šentjur,Slovenia
0554003899,Ashla Cruise,3075304785,Delaware,104,,Caringin,Indonesia
7527588209,Lee Rawlingson,8478339130,Sunfield,530,90150,Uthal,Pakistan
4222610518,Willa Box,9468387391,Hoepker,10,,Putina,Peru
7738812168,Floyd Dennis,4467873794,Debs,85,473029,Guamal,Colombia
0248967770,Mendy Habbon,9624116096,Charing Cross,3833,92401,Ruukki,Finland
6732667769,Meara O' Clovan,1224242261,Charing Cross,808,,Jiancheng,China
7516533203,Bendite Skeats,8481070342,Rockefeller,50380,23161,Sūrāb,Pakistan
4961825336,Xylina Rowdell,6022587878,Shopko,617,443033,Rossosh’,Russia
9671054137,Jarret Cawse,6939612265,Nova,213,62-280,Kiszkowo,Poland
4661363620,Rogers Jenteau,2546654644,Comanche,2703,3200,Concordia,Argentina
4094554866,Sada Macci,9738828146,Loftsgordon,34543,5425-055,Loivos,Portugal
7586935912,Brannon Cutten,5851699412,Blaine,148,6550,San Carlos de Bolívar,Argentina
6829219655,Chery McAulay,5457625722,Heath,945,997-0334,Maruoka,Japan
9274849664,Timmy Sansbury,2792750019,Eastlawn,25,,Shuhong,China
7560887147,Pat Luckett,2904163139,Goodland,07,10802,San Francisco,Costa Rica
4981246056,Odele Gowry,3532604378,Butterfield,5850,17314 CEDEX,Rochefort,France
6090512575,Clarette Kilgrew,2387003905,Oakridge,338,10702,Cevicos,Dominican Republic
4772459618,Saleem Gillis,8539281582,Debs,11622,P81,Farranacoush,Ireland
8618148466,Concettina Lannin,4061221922,International,85715,55200-000,Pesqueira,Brazil
7979436857,Jedediah Sandercock,6747984972,Service,251,4824,Borino,Bulgaria
7231214622,Bonnibelle Lowthorpe,4496537783,Fisk,09,,Newala Kisimani,Tanzania
7354537578,Phebe Maffezzoli,2161091114,Carey,534,44185,Cleveland,United States
5782228873,Lisetta Silveston,3425168738,Clarendon,09,31000,Phak Hai,Thailand
5290268499,Winston Mahon,6695876966,Nelson,57765,3904,Richards Bay,South Africa
0785175733,Thacher Tedstone,2691209950,Carioca,21468,4750-402,Gandra,Portugal
0061097098,Ludovika Kirton,2514401479,Northridge,46,,Hal’shany,Belarus
2673921281,Mathias Reina,8644842973,New Castle,13,,Turirejo,Indonesia
5163078615,Jacinda Gennerich,1648088123,Declaration,948,,Taipinghu,China
9904703973,Clifford Pyffe,3472683638,Sutteridge,3,,Kushovë,Albania
3765514551,Poppy Sextie,8131833796,Burrows,238,,Rabaul,Papua New Guinea
2415687022,Kristin Penswick,8392224039,Hermina,380,,Wuxi,China
9480882183,Adey Ceney,7176843444,Burning Wood,1026,47-240,Bierawa,Poland
3197347129,Sheela Olford,3671204398,Sundown,76,7960-155,Selmes,Portugal
6893059620,Suellen Cokly,4649651740,Northridge,0,612450,Suna,Russia
9303667913,Bay Mewrcik,9595260223,Elmside,35,,Randuboto,Indonesia
9516429106,Stanleigh Proven,7402430282,Scoville,63,,Dongqu,China
4133371097,Lisha Geraud,8287815367,Forster,2,,Hekou,China
2743689587,Leeland Staning,2761716753,Village,8,,Próchoma,Greece
5559531510,Charlene Spurden,8816183042,Sachs,133,,Suka Makmue,Indonesia
2014165793,Andree Kettlestring,2391671860,Westport,26,,Sungailiat,Indonesia
8725032488,Freddy Culverhouse,2713271591,Debs,25,183027,Cartagena del Chairá,Colombia
7267438458,Ellswerth Yurkov,6608040198,Rigney,9,2770,Bansko,Bulgaria
9937291801,Darwin Donke,9571546585,Thackeray,388,,Tursunzoda,Tajikistan
7675995538,Haley McLeese,7495404508,4th,86781,75353 SP 07,Paris 07,France
6027757507,Tarra Marcussen,8586167824,Calypso,18930,232008,Momil,Colombia
0806850434,Aigneis Rudge,6597965178,Ilene,7,,Niyang,China
9587011872,Rasla Kemwall,5597929782,Eagle Crest,8060,0748,North Shore,New Zealand
1054523371,Cornell Frusher,4014317241,Center,44848,3501,Maddarulug Norte,Philippines
6078400169,Brandise Lanfer,3965836556,Stephen,69,46781,Petaling Jaya,Malaysia
0188663630,Melodie Downie,5796919743,Prairie Rose,746,,Babakankiray,Indonesia
4839200696,Chrissie Brimman,8648473406,Sullivan,725,,Hekou,China
2890660206,Carmina Cullinane,9013828316,Muir,91388,551 01,Šestajovice,Czech Republic
7980734203,Butch Cockburn,9663987343,Briar Crest,26329,,Dawang,China
9852615688,Emmye Tytherton,5443121790,Lerdahl,67,,Sankwia,Gambia
7701717315,Caspar Capsey,7697417425,Basil,61903,4960-320,Capela,Portugal
9682188849,Lynn Bechley,7786802367,Pawling,8347,,Bizerte,Tunisia
4397502102,Sibylla Barkworth,5135312805,Nancy,5,959-1226,Komaki,Japan
3740851473,Wilfrid Bonnaire,6688248270,Hauk,172,,Kedungsumurkrajan,Indonesia
4741534227,Rodi Curragh,6801557760,Macpherson,880,,Huayan,China
6241479849,Leon Dockery,4622541580,Miller,10399,,San Juan Bautista,Paraguay
4897832799,Terrijo McMenamy,9264288105,Cascade,87302,,Mandapajaya,Indonesia
0179266470,Bondie Gerraty,6992449781,Manitowish,1686,,Uubulan,Mongolia
9997811658,Reuben McOwan,1373297254,Thackeray,759,,Soledar,Ukraine
9474167397,Katine Teesdale,1306530710,Del Mar,6767,50782,Kuala Lumpur,Malaysia
0596042418,Huntlee Horrigan,3452646888,Transport,1,2902,Paoay,Philippines
3644880271,Courtney Flores,8765931737,Dawn,74,,Jifeng,China
8431116706,Damon MacEnelly,3662078218,Del Mar,27580,186120,Pryazha,Russia
3781634639,Kerrin Godman,6352779701,Anthes,00829,39990-000,Águas Vermelhas,Brazil
5098167450,Reinold Vedekhin,2001657111,Karstens,84944,,Lishan,China
7505301187,Reinhard Padilla,3343398272,Stone Corner,6,,Punta del Este,Uruguay
8539886642,Cyrill Critchard,6808466207,Macpherson,1409,15190,"Coruña, A",Spain
8383124252,Denise McBoyle,6842040968,Hudson,3652,49-314,Pisarzowice,Poland
9195358285,Abbey Twizell,3968671880,Transport,04115,,Xinyan,China
0384332536,Gilbertina Clere,2892781217,Ronald Regan,44157,,Pasirhuni,Indonesia
4145569628,Frazer Fullerlove,4486969399,Lotheville,71606,,Vilca,Peru
5917902968,Henrietta Quest,8458940540,Mayfield,29001,311-1500,Ōarai,Japan
8159930488,Janith Scannell,4883662416,Bunker Hill,9,,Shashūbay,Kazakhstan
1866144480,Grantley Tesseyman,2606444077,Saint Paul,75,,Nanxia,China
1475698844,Erv MacCahey,8868242334,Forest Dale,0327,37600-000,Cambuí,Brazil
0344276023,Bennett Pullman,9096948228,Heffernan,775,162811,Kazinka,Russia
5483006852,Morlee Guilliland,2316833436,Lakeland,88,10905,Santa Cruz de El Seibo,Dominican Republic
8940599675,Mariejeanne Braidman,5331217001,Truax,34823,,Chornoliztsi,Ukraine
4560708207,Roth Stanlick,8476003432,Buena Vista,70140,,Rongcheng,China
0949586978,Lynnelle Ganderton,9639328164,Russell,5,,Shoushan,China
2750127009,Bertram Crosbie,5744140236,Pankratz,4666,,Hekou,China
5144195393,Berri Goddman,4414875602,Anthes,78313,,Oenunu,Indonesia
4454574545,Bentley Heineke,6282608535,Pawling,7,2823,Ceibas,Argentina
9034103900,Mile Sherman,1194741043,Orin,9501,9630-145,Nordeste,Portugal
7761932654,Rufus Gonzalo,6923899869,Cascade,1775,142720,Shcherbinka,Russia
0082552665,Simonette Stonuary,7589291093,Oxford,1764,54455,Morelos,Mexico
2836782625,Danila Cayley,1836027945,Summerview,62947,,Archis,Armenia
1859451586,Rhys Serrell,7296341932,Bayside,395,,Yilkiqi,China
1000935485,Alaine Kobke,1293853172,Mifflin,439,3312,Gumalang,Philippines
2435984065,Mitchael Wardley,5112659954,Eastlawn,081,533 04,Sezemice,Czech Republic
2603459074,Lyman Steels,2444279360,Sachtjen,8059,,Lezhu,China
8775153106,Koenraad Tesdale,4111447642,Barnett,6,,Petrivka,Ukraine
9385216945,Patrica Hilley,2076811824,Anniversary,8596,,Kibondo,Tanzania
5869454697,Walton Cadreman,8084411996,1st,4382,,Menglie,China
5901747089,Bernardine Uphill,7567307079,Dixon,821,64525-000,Várzea Grande,Brazil
3748420471,Kendra Vanyutin,6237500141,Hoepker,9,781 87,Borlänge,Sweden
3802654781,Dora Bullas,3997704983,Corry,34,,Calebasses,Mauritius
8285801209,Florentia Beards,2153430200,Morningstar,5,,Lidong,China
6460457085,Maryrose Fulop,7929120435,Onsgard,37988,140306,Yegor’yevsk,Russia
2729294252,Constantino Shawley,9668477042,Ridgeway,34044,,El Tambo,Peru
8415846487,Allys Phillis,4126925677,Nelson,63431,15825-000,Paraíso,Brazil
8111947844,Lorry Murty,6999171059,Kingsford,4526,,Ashkāsham,Afghanistan
2809111413,Mariette Linfoot,5908928639,Scott,3,42-311,Żarki-Letnisko,Poland
7558412668,Jo Lieb,9573940242,Stoughton,2,,Baihe,China
4080686994,Abbot Smedmoor,8343526792,Clyde Gallagher,7145,,Boulaouane,Morocco
1895545471,Jeanne Jirusek,9295087112,Steensland,7912,,Maodao,China
2775013678,Miran Rallinshaw,4698647414,Dunning,0220,,Lampihung,Indonesia
3668571341,Vilhelmina Cansdill,4596119220,John Wall,39,,Petauke,Zambia
1470621908,Jesse MattiCCI,9976276395,Florence,9,,Wenfeng Zhen,China
6864999114,Elfrida Ellam,6045054292,Delaware,0,,Lichengdao,China
7987176168,Gwen Croux,2119251480,Rockefeller,15125,38900-000,Bambuí,Brazil
2202653589,Meghann Grishinov,9844238654,Anderson,305,,Pinghu,China
8157779928,Aggy Condell,1299912280,2nd,89963,446378,Novosemeykino,Russia
4018897693,Abbey McArdle,2126430519,Fairfield,6880,3810-609,Vessada,Portugal
2907777351,Annalise Strowthers,5579317662,Hazelcrest,92,,Dadian,China
0119186497,Sadella Cuschieri,9084552386,Grover,40,422505,Nyazepetrovsk,Russia
0392494167,Cesya Wilmott,3579185691,Anzinger,46992,,Permas,Indonesia
3759680240,Rudolph Paike,2612362161,Porter,9,,‘Abs,Yemen
5254725281,Westleigh Vatcher,2664624955,Lien,05,,Letlhakeng,Botswana
0658974769,Elnore Jankovic,3164004845,Magdeline,1970,0280,Oslo,Norway
5716268552,Parker Burdas,7374989809,Farragut,87,7039,La Dicha,Philippines
6614544055,Gardner Tytterton,1437444996,Lunder,26215,,Zhangye,China
3542675334,Bary Fay,7362633302,Stephen,0938,4615-467,Calçada,Portugal
8553520854,Delphine Artindale,3866526242,Rutledge,563,10510,Mella,Dominican Republic
0756514703,Alie Webermann,4036598027,Mayfield,8,50490,Kuala Lumpur,Malaysia
2216369497,Hi Redford,5336767989,Bobwhite,9,,Shi’an,China
2627997661,Garey Strute,2409422459,Bonner,3258,,Palca,Peru
1152001310,Ketti Herculson,3687656310,Artisan,1,,Nirgua,Venezuela
3124343190,Gerladina Vynarde,7533339805,Hayes,4,2000-452,Alqueidão,Portugal
3656210934,Bartholomeus Pevie,6309910176,Southridge,37,,Xinmin,China
2153176778,Genevieve Brafferton,6123519929,Shelley,404,55417,Minneapolis,United States
4315372269,Levi Hellmer,6066960172,Truax,5361,394091,Pridonskoy,Russia
8154088355,Rosanna Ashman,7283346134,Nevada,354,15604,Kota Bharu,Malaysia
8678266147,Karyn MacMeeking,9156143798,Heffernan,91,,Upper Hell's Gate Bonaire, Saint Eustatius and Saba 
6551050565,Sophronia Kimberley,1601071740,Acker,8231,404172,Yeysk,Russia
0199413312,Matilda Anfonsi,6234889770,Homewood,4,69902 CEDEX 20,Lyon,France
5936347923,Nancie Risdall,7377068272,Macpherson,199,232517,San Carlos,Colombia
3924711801,Nerti Joye,3109956023,Elka,12764,9241,Šentilj v Slov. Goricah,Slovenia
0235476692,Payton Placide,4054764189,Colorado,9328,,Malummaduri,Nigeria
8168731360,Torr McIlwraith,6639270988,Ludington,3696,347252,Sokol,Russia
1131732901,Ripley Gabbotts,5728528868,Mayer,3,399-0746,Shiojiri,Japan
5919775920,Fredra Kuzemka,8505750247,Lakewood,6915,366319,Mayrtup,Russia
2958451623,Ebeneser Darby,5716435602,Spenser,790,1477,Bagong Pagasa,Philippines
7829115648,Irving Downer,6168856959,Melrose,9692,892-0873,Kagoshima-shi,Japan
4336669724,Jakie Mugglestone,9136204832,Dwight,867,,Xiachu,China
6238408227,Delmar Feldhuhn,7809695459,Kenwood,404,,Banī Walīd,Libya
0003130703,Mallory Bonnesen,8208102342,Milwaukee,7,P3N,Smithers,Canada
6247354762,Belle Farherty,6916023250,Mayfield,60,,Zhutang,China
9056203142,Hali Cheale,1583391198,Evergreen,24728,2950-682,Olhos de Água,Portugal
1713800551,Waneta Legging,2114464594,Vahlen,451,5705,Guisijan,Philippines
4072269239,Simonette Strute,4316304096,Summer Ridge,54610,74120,Ban Phaeo,Thailand
8989736005,Gunar Rief,4542766929,Almo,66,,Simenqian,China
2197588826,Valeda Juara,7269572294,Rusk,37026,91295 CEDEX,Arpajon,France
7955630939,Gale Sandford,1354889352,Mitchell,38,,Xinzhou,China
0472739808,Evelina Skatcher,4499280905,Burning Wood,3,,El Parco District,Peru
1889789720,Kenneth McCadden,7201979895,Susan,64,2565-522,Monte Redondo,Portugal
3026790737,Rachel O'Feeny,4931228695,John Wall,7179,,Katoro,Tanzania
0442632215,Natalie Lagen,4277177004,Thompson,20626,13031,Santa Ana Huista,Guatemala
7450310449,Tucky Huntingford,1044224855,Ridgeway,02387,,Luoluopu,China
0362935084,Jobi Prophet,9189389204,Merchant,03115,74116,Tulsa,United States
3102978428,Onofredo Manilove,7138040838,Shopko,31585,77281,Houston,United States
8482695096,Mallory Shovelin,8964480339,Merchant,87,,Temanjang,Indonesia
6945419428,Sena Portigall,2022042677,Briar Crest,5,8113,Kalibo (poblacion),Philippines
9495452198,Gwennie Eloi,7499149641,Weeping Birch,32563,,Chervonoarmiys’k,Ukraine
0701575174,Lindi Sirkett,7648184130,Bowman,2,,Wanfu,China
2439420468,Aldwin Dingwall,6556155995,Vera,987,727-0203,Shōbara,Japan
1870064852,Paige Demeter,7594862293,David,5,,Qingxi,China
7297241857,Bendite Juanes,2865536242,School,359,,Greenville,Liberia
2457860830,Obie Douglas,3571328298,Garrison,67,3303,Reina Mercedes,Philippines
1001357485,Klemens Lattie,4732006043,Bunting,3,,Belgrade,Serbia
7000964235,Zola Flann,7186383943,Delaware,6,4640-221,Castelo,Portugal
1115882465,Hermon Strood,7282859407,Farragut,30,,Ocumare de la Costa,Venezuela
4578244164,Francois Zimmerman,3362875656,Anzinger,05,,Wonorejo,Indonesia
8582841825,Benito Dutnall,4435312213,Superior,469,,Tanalt,Morocco
3895255602,Rosabella Forri,2332331550,Esch,53,01000-000,São Paulo,Brazil
8010185396,Ulberto Gyngyll,5742917559,Sage,3,822-0034,Nōgata,Japan
7329545171,Trueman Souness,5939925706,Autumn Leaf,846,39605 CEDEX,Arbois,France
2729434631,Catherin Jovey,7158481920,Del Mar,7,1105,Matala,Philippines
8995328533,Ashlie Baford,9093819564,Fieldstone,003,8601,Buenavista,Philippines
8685267137,Pate Dearman,1568475595,Memorial,123,,Heshan,China
5631530198,Nikos O'Fallon,1445479040,Kedzie,7000,,Oguta,Nigeria
1056565047,Nesta Frill,5409830659,Old Shore,3480,,Hewan,China
8899228825,Dayle Bermingham,6687083550,8th,01,,Datong,China
1025206746,Richardo Burg,7029147860,Evergreen,5,3600,Celje,Slovenia
4785221151,Brandise Round,7515774808,Straubel,03,,Colendra,Indonesia
6650006157,Debora Oakeshott,7572607031,Debs,5,8427,San Jose,Philippines
1400744105,Marcos Wallworth,2827140698,Springs,892,,Batangan,Indonesia
0152332227,Sheffield Lipgens,1571695672,Linden,518,664048,Belén de Umbría,Colombia
1035071517,Irvine Vossgen,9207413005,Tomscot,7823,356532,Ussuriysk,Russia
6060127657,Blair Donald,1831055617,Anhalt,0,,Tlogowungu,Indonesia
0191450219,Eloise Dell,2187759764,Crest Line,1056,PLA,Paola,Malta
4973526231,Wald Bellamy,7588427515,Delladonna,1,,Kim Sơn,Vietnam
3049685433,Nancey Ruff,5901516945,High Crossing,0830,,Huating,China
7145996057,Shay Nobbs,9847394418,Duke,04008,93600-000,Estância Velha,Brazil
3089476614,Emmit Fanstone,2027756953,Buhler,3,,Kampungsusah,Indonesia
6404692910,Thorpe Toffel,2241314431,Lotheville,6590,443099,Lianozovo,Russia
8403696353,Fianna Fulstow,1859907034,Larry,0,55000,Nan,Thailand
2831018722,Cchaddie Eckly,1696616377,Myrtle,61216,8113,Magatos,Philippines
9552939925,Abbe O'Logan,2881398625,Towne,919,,Kabarnet,Kenya
2268598640,Tobie Geertje,9424436062,Commercial,62,54939 CEDEX 9,Nancy,France
0270639888,Dayna Gostyke,6011594624,Dorton,823,,Kadupayung,Indonesia
9448276028,Ody Brouncker,4833973826,Crowley,9,616 32,Åby,Sweden
6856631898,Terence Toms,4223342795,Arkansas,954,,Las Sabanas,Nicaragua
0350141703,Celestina Etherson,2698570272,Loeprich,42887,,Ḩawallī,Kuwait
2916844805,Ham Spennock,8861798903,8th,2,731048,Líbano,Colombia
5709777102,Ichabod Mursell,6933382268,Elgar,68,,Sandouping,China
7135452666,Pris Sandal,8621839769,Meadow Ridge,164,,Turiys’k,Ukraine
9111972335,Gelya Whitehorne,9674441591,Springs,4505,,Mykolayiv,Ukraine
1843712423,Evelyn Kitt,1401361570,Merchant,124,,Gadingrejo,Indonesia
3020506166,Jeanna Clingoe,2897213352,Starling,3416,,Yaopi,China
6243344312,Iain Sacher,7041492188,Bowman,02175,3805,Amersfoort,Netherlands
3071959834,Charmaine Pirt,7572149457,Hansons,7811,,Niš,Serbia
7459206709,Hermon Warton,6328908718,Glacier Hill,60,,Huangtudian,China
0616772416,Horace Reisk,6217364825,Stang,78,,Sujitan,China
4766805453,Winifield Faughnan,8303547316,Calypso,957,,Pingdi,China
7588260351,Stormie Fradgley,4477076370,Rusk,35721,794-2550,Innoshima,Japan
7823832615,Tisha Crisell,2848349570,Coleman,762,,Sémbé,Republic of the Congo
5720110860,Ransell Canto,8797166148,Welch,10875,62680-000,Paracuru,Brazil
6254781786,Gris Derbyshire,5071997672,Springs,8,,Riangkroko,Indonesia
0728028662,Yancey Secrett,7938779309,Graedel,03,216210,Dukhovshchina,Russia
7838246628,Rossie Doogue,5788152260,Swallow,7707,368758,Usukhchay,Russia
1186440090,Maryrose Lowey,1513815563,Londonderry,2222,5160-218,Torre de Moncorvo,Portugal
0801719283,Sada Casaletto,3347012817,Bultman,92896,9406,Paatan,Philippines
8417384308,Claretta Boullen,1398678964,Arapahoe,41,,Basyūn,Egypt
6642815270,Mella Keppie,4771212811,Superior,797,,Hexi,China
7599673644,Theodora Pavlik,5946056191,Mcbride,02321,,Kalabahi,Indonesia
9806864808,Denyse Sterry,6704943525,Arapahoe,6609,68300,Kälviä,Finland
0323734766,Maris Flude,6238732512,Forest Dale,255,J4X,Sainte-Anne-des-Plaines,Canada
1907768262,Agnola Gullam,4948581721,Macpherson,23555,503 15,Nechanice,Czech Republic
9651476125,Roderigo Loveitt,8579801614,Lillian,5,,Long Hồ,Vietnam
7287037793,Yorker Pack,1393273621,Lunder,175,,Agios Dimitrios,Greece
4388054887,Ruprecht Fitchew,6216427545,Northview,55,,Igbor,Nigeria
2581015861,Casey Whaplington,3535232123,Sommers,073,,Bailu,China
9305136176,Kylynn Vankeev,6647481725,Pierstorff,50,,Caracol,Haiti
6958133773,Carney Sant,1099849580,Esch,004,,Cipanjang,Indonesia
8735972327,Gracie Everly,8612709663,Armistice,5055,,Wan’an,China
2434818919,Danica Salt,7143140565,Surrey,81843,,Arfará,Greece
1726687570,Chad Toulamain,1647914849,Lakewood Gardens,47,,Lenger,Kazakhstan
6400658459,Fletch Upsale,3539573005,Waxwing,542,685 24,Torsby,Sweden
3652355504,Hendrik Guillart,3617395648,Pennsylvania,08830,,Long Beluah,Indonesia
3449311077,Aarika Baton,3818962636,Packers,40349,4101,Aguisan,Philippines
1714200558,Travis Sicily,5983585598,Menomonie,33638,V7P,Langenburg,Canada
1635410207,Cully Murtagh,7808645105,Eliot,6122,,Wanling,China
5899425725,Dame McNay,1748161291,Continental,1,,Henglu,China
5683260264,Hastie Brithman,5421469088,Meadow Ridge,61,10004,San Bernardino,Guatemala
3495719431,Dominic Feaks,4215085787,Dennis,35,,Hengshan,China
4280400520,Fin Tureville,7875202812,Little Fleur,0,,Ticrapo,Peru
0162458258,Jaclin Kondratyuk,2251601716,Reinke,65,144005,Gigant,Russia
8675049897,Klara Eck,9171436828,Harbort,22,2950-577,Pinhal da Marquesa,Portugal
9139620263,Adela Boncoeur,1648910701,Dapin,1266,999-5313,Shinjō,Japan
2679087615,Evelyn Midgely,4043912193,Grover,4907,140732,Roshal’,Russia
4701456365,Reinhold Gieves,9445889990,Sauthoff,32466,,Abraham’s Bay,Bahamas
2682732852,Hoyt Faherty,5661527208,Gina,151,22-610,Krynice,Poland
3658546522,Marigold Devonport,9821546016,Holmberg,22,366128,Kalinovskaya,Russia
3532338637,Ira Haddeston,8462991386,Michigan,86034,91194 CEDEX,Gif-sur-Yvette,France
9739214649,Friedrick Llorente,6113646929,Acker,00,30011 CEDEX 4,Nîmes,France
5533069852,Roxana D' Angelo,2805909714,Main,11830,5164,Villa Bustos,Argentina
3537348207,Kenna Cruces,8146980225,Kings,22,16550,Erie,United States
4557285163,Kelcey Raffles,5446247760,Moulton,2,,Krajan Satu,Indonesia
2128002400,Sumner Ceschini,4296176323,Nova,8324,,Sukowono,Indonesia
5556540020,Rock Handrek,8981747683,Old Gate,8,M1M,Pictou,Canada
8138413204,Georgianne Smoughton,2702887742,Mariners Cove,82142,,Baiguan,China
5208448963,Fonsie Bloomer,3306759433,Lerdahl,465,44485,Warren,United States
4345803101,Gail Scamerden,2084920345,Melby,49,,Dār an Naşr,Yemen
7352163514,Jay Quiney,1206236596,Merchant,4,,Ying’ebu,China
5056240494,Griz Shimuk,9675373458,Towne,0926,,Duli,China
3684952923,Wolfgang Blampy,1162756272,Clemons,14,,Masuguru,Tanzania
2023766737,Rosina Chippindale,5389171854,Waubesa,07329,,Kedungbulu,Indonesia
2817890035,Norris Canto,2282037579,Corry,884,2435-225,Abades,Portugal
6480957474,Stanfield Kemmer,7118623846,Johnson,9738,,Gemuruh,Indonesia
2121336494,Ermentrude Danielot,7403431703,Hooker,8119,01760,Kronoby,Finland
0545747147,Aile MacLice,3959888261,Thackeray,032,,Kampot,Cambodia
0814662463,Cornie Bartalin,8126046878,Rigney,7115,,Samho-rodongjagu,North Korea
9976995490,Bonita Newland,2059278164,Del Sol,8593,2920,Bangui,Philippines
3348522277,Kessia Brandle,8341331093,Hallows,69248,,Melíki,Greece
0444932372,Oliviero Giabuzzi,1453288396,Mayer,68,,Miyang,China
3507594617,Maye Guys,7572279975,Steensland,7027,,Dapuchaihe,China
8211829762,Ulrich Millimoe,5994568470,Bunting,51,5179,Strazhitsa,Bulgaria
7167173185,Leone Vequaud,8211799705,Helena,0431,,Yanmen,China
1052421806,Ammamaria Forst,9899217873,Carpenter,18385,,Suruhwadang,Indonesia
2853554856,Alfie Dodworth,5925117641,Sunfield,8838,,Sinarwangi,Indonesia
9314420957,Zedekiah Scaysbrook,4868300588,School,157,,Namīn,Iran
2222152119,Jacklyn Merricks,3138838739,2nd,6,,Ilām,Nepal
1938385926,Carena Ciobutaro,1747564018,Crowley,44123,,Wagini,Nigeria
5664298022,Riva Courtenay,3124790220,Crowley,420,,Daba,China
2952734658,Blaine Owbrick,2759195703,Westridge,92283,82104 CEDEX,Castelsarrasin,France
9340968980,Bria Nixon,6619841217,Hazelcrest,46,,Spétses,Greece
0752975404,Cyndie Iseton,5218459747,Lakeland,276,6529,Nijmegen,Netherlands
7934944802,Vita Hame,7535357756,Buhler,445,,Jiyang,China
0883458446,Olav Purkis,1685910156,Grim,4592,,Heshang,China
3363387369,Romola Gurwood,5278670844,Declaration,16,50601,Cañas,Costa Rica
6525536162,Bear Camilleri,6058462241,Arapahoe,601,,Vamvakoú,Greece
3407636075,Vinita Sparrowhawk,6162162859,Nobel,645,07121,Palma De Mallorca,Spain
2498203532,Yovonnda Vallow,4193131919,Packers,7,43666,Toledo,United States
7306200925,L;urette Eyres,9901303831,Maple Wood,06,,Baun,Indonesia
1758373849,Elsi McCanny,4504951852,Holy Cross,2,,Yangshuo,China
8068959041,Pierce Lowin,3407664537,Bay,9999,63073,Offenbach,Germany
2526271169,Brynn Kyffin,3624649768,Talmadge,219,309534,Centralniy,Russia
7146220354,Krystal Neill,5536163815,Valley Edge,22,,Huayuan,China
8073110717,Guglielmo Fink,1876999131,Eastlawn,80712,,Dudchany,Ukraine
9170174210,Hercules Dowty,5404684490,Cambridge,0438,353254,Smolenskaya,Russia
0731686101,Dorey Bradbury,4529149264,Michigan,38144,,Sremska Mitrovica,Serbia
0657191299,Wald Iceton,6294498779,Golden Leaf,45,2815,Boliney,Philippines
1567231195,Queenie Brychan,9778716951,Thierer,77886,78051,Rustam jo Goth,Pakistan
5408742695,Heywood Gellion,1947381991,Evergreen,1,,Zhdanov,Armenia
4206183791,Klement De Caroli,1018892993,Independence,6578,,Tanbuqiao,China
5158265607,Dickie Baud,8372259291,Mendota,38,,Bembèrèkè,Benin
8993621136,Samara Laybourne,6956637867,Homewood,04786,,Kula,Serbia
0524993629,Rhett Skitral,9047992687,Talisman,804,88130-000,Palhoça,Brazil
1298399785,Arnaldo Hubbucks,7275673562,Doe Crossing,4,62-002,Suchy Las,Poland
7229861152,Lisetta Karet,6885494805,Walton,92,T7Z,Stony Plain,Canada
9134451331,Angus Stowers,2033075227,Westport,03,,Cikuya,Indonesia
4223475991,Kippie Capstick,6245978940,Eagan,09,2338,Bājitpur,Bangladesh
8289350279,Wade Maciocia,1042769088,Arrowood,5305,,Gunajaya,Indonesia
1172325073,Darcie Newsome,7639350574,Coolidge,4877,59-171,Przemków,Poland
1616880236,Boycie Sheather,6126746764,Carpenter,16839,55470,Minneapolis,United States
8615394431,Arvy Yatman,3539883630,Namekagon,05428,6215-205,Erada,Portugal
1861498616,Chrisse Byrde,9428132258,Superior,7033,,Tasīl,Syria
1885497628,Martica McVie,6055407796,Nevada,8,,Muleba,Tanzania
8712663174,Yvonne McTear,6775781228,Glendale,5,70502,Batán,Costa Rica
2357731125,Eimile Gambie,2282167790,Melrose,1,,Hanban,China
0226738485,Braden Bradtke,7203588095,Portage,215,252257,Granada,Colombia
7723458479,Grover Fontaine,8154761891,Prairie Rose,0481,6337,Lukovo,Macedonia
8878637181,Gwendolen Judkins,8498701633,Service,9953,,Wangon,Indonesia
5517801463,Forster Jollands,2998343027,Anderson,5863,,Jundian,China
1399219588,Cassie Mazdon,5407224461,Arizona,244,,Gangbian,China
5621810392,Clarie Bengtsen,2135510016,Dovetail,9112,89000-000,Blumenau,Brazil
5907575247,Clarette Izhaky,6363995341,Hagan,964,1531,Tinalmud,Philippines
6331684743,Pansy Eckert,1467022056,Fairfield,64952,,San Buenaventura,Peru
8199941510,Colly Newson,2976191344,Kedzie,3,9104,Catarman,Philippines
7631933650,Sigrid Dot,3198567511,Magdeline,58648,,Gostovići,Bosnia and Herzegovina
8314218243,Constance Barry,5341721206,Superior,3,2125-106,Marinhais,Portugal
2694858937,Anne-marie Frangello,1694731672,Vahlen,603,,George Town,Cayman Islands
9337802031,Killie Aylott,4536069498,Everett,811,,Kabala,Sierra Leone
0596016018,Cymbre Lelande,1855674270,Eagan,9817,2860-278,Rego de Água,Portugal
4714282166,Agathe Cervantes,6202103919,Sunnyside,52,,Timbrangan,Indonesia
6248477108,Beale Dwyr,6694232992,Bayside,79,14500-000,Ituverava,Brazil
3688175050,Marlon McAllaster,6714087547,Northport,29,,Sijiu,China
5357796777,Malina Huskisson,9552453516,Hanson,8,5250,Solkan,Slovenia
9631301389,Marnie Goodwill,1961973711,Shasta,2,,Bijie,China
4252908418,Agna Jodlowski,4368469300,Upham,73,,Luniao,China
9429276352,Bordy Storror,3746117207,Almo,63200,93150,Kuching,Malaysia
7013920290,Margy Learmonth,9009141248,Scofield,8,2341,Limbuš,Slovenia
2706890401,Marlie Ubsdell,4216316726,David,8792,5613,Naili,Philippines
3231284104,Lois Fidelli,5265171780,Memorial,50,,Yuexi,China
7185816459,Alejandrina Kearn,2534470442,Lakewood,24,P2N,Kirkland Lake,Canada
1439119686,Denise Gertray,7117195605,Harbort,6,,Pule,Indonesia
5132706320,Wallis Deavall,5419997488,Debra,6964,37410-000,Três Corações,Brazil
3878526350,Vincenty Sinclar,1425733241,Comanche,3,79550-000,Costa Rica,Brazil
8391087190,Denney Fernandes,5663885190,Upham,50,628189,Nyagan,Russia
6085766920,Grove Dunnan,4045836283,Clemons,484,,Bharatpur,Nepal
5316980166,Anne Dee,6059287004,Westridge,45305,97-420,Szczerców,Poland
4133227220,Coriss Twiddy,8217945626,Drewry,963,61890-000,Guaiúba,Brazil
7920558964,Tamarah Luddy,7667271135,Mitchell,00565,4950-840,Pereiro,Portugal
7957881874,Emanuel Molden,3965979969,Tomscot,660,,Karangduren Dua,Indonesia
5614707484,Tades Houndson,6807610155,Loftsgordon,842,21304 CEDEX,Chenôve,France
3324223709,Orren Kerry,1952309400,Burrows,5,,Guanyinsi,China
8027683939,Dre Sartin,1947547970,Comanche,8,,Aqtoghay,Kazakhstan
6207619846,Lauri MacMearty,2919392447,Spaight,249,9560-097,Lagoa,Portugal
1734069228,Clare Josefer,3074416219,David,05633,,Muḩambal,Syria
1531371345,Edyth Vedeneev,9369277185,Hayes,74953,901-0361,Itoman,Japan
3881328386,Herman Brankley,1364051540,Caliangt,84753,1033,Kathu,South Africa
5693629783,Calv Jeppensen,3489975006,Fieldstone,9231,,Kuwait City,Kuwait
0855582634,Egan Rochewell,9058694617,Grayhawk,87574,154848,Buenavista,Colombia
2905572779,Conn Roseblade,6229970158,Loftsgordon,082,141508,Solnechnogorsk,Russia
7414130533,Henriette Knappett,9997307280,Florence,536,16004 CEDEX,Angoulême,France
5181383475,Atlanta Philipson,9332052621,Charing Cross,3795,,Anle,China
8472178161,Stuart Braybrooke,1849969098,Shoshone,618,981-3311,Tomiya,Japan
3656186812,Marcelia Dugget,1356829238,South,8,,Ichuña,Peru
9085803594,Cora Caldecott,5624978032,Becker,6342,68445-000,Barcarena,Brazil
5438256926,Glad Burnep,8401462173,Moland,9,,Luoqiao,China
8287554209,Duncan Gibbard,2825903043,Dennis,96,735 32,Rychvald,Czech Republic
3964610658,Issy Raccio,4682629728,Westport,20350,,Tonosí,Panama
7347874254,Donetta Halesworth,1032856417,Schlimgen,28267,,Ngala,Nigeria
5373449652,Jillian Bapty,3543718145,Sachtjen,950,64-234,Przemęt,Poland
2988357978,Alisa Solomonides,2894314755,Shoshone,436,,Pandi,China
0944586562,Harvey Hubback,2142727261,Erie,57486,1181,Budapest,Hungary
4707654959,Kira Grishakin,3955175306,Morning,8,,Tamra,Israel
2666574474,Malvina Poulett,5173862481,Tennyson,48,2423,Bayambang,Philippines
3314492189,Rockie Farquar,2342368014,Weeping Birch,1,7460-204,Vale Maceiras,Portugal
2706415576,Kienan Catlette,4165920227,Kipling,61482,,Dongshan,China
0088851788,Cecil Philippeaux,4231983527,Scott,26,,Cimrutu,Indonesia
9767254293,Kirstyn Climie,4687693845,Anderson,76484,,Mangseng,Indonesia
4518737040,Josey Bubbins,7413611767,Scofield,55,172009,Torzhok,Russia
6276611301,Doe Verner,9571156712,Springs,42,87-811,Fabianki,Poland
7294029628,Mariette Di Matteo,3436448179,Wayridge,136,8243,Schäffern,Austria
5360246677,Dalt Ticic,5487717227,Corben,53,,Mintian,China
9148323268,Marius Mullany,5759554603,Division,0,,Fatualam,Indonesia
9012272106,Roxine Maffione,3325406780,Village Green,81910,10250,Lučko,Croatia